0 BREEZE-M R/B
1 37844U 11059B   13281.08835668  .00000036  00000-0  00000+0 0  3500
2 37844 030.0615 136.4790 6677162 288.8578 279.8132 02.27325032 16302
0 BREEZE-M R/B
1 37844U 11059B   13285.60086009  .00000022  00000-0  00000+0 0  3515
2 37844 030.0834 135.2790 6677691 290.7019 012.7350 02.27325232 16400
0 BREEZE-M R/B
1 37844U 11059B   13285.60366642  .00000022  00000-0  00000+0 0  3520
2 37844 030.0707 135.2847 6677198 290.7128 015.0264 02.27325057 16400
0 BREEZE-M R/B
1 37844U 11059B   13289.56088521 -.00000028  00000-0  00000+0 0  3534
2 37844 030.0783 134.2399 6677189 292.3375 013.5104 02.27325128 16491
0 BREEZE-M R/B
1 37844U 11059B   13294.26219148 -.00000022  00000-0  00000+0 0  3543
2 37844 030.0907 132.9922 6677059 294.2727 260.9369 02.27325448 16591
